SL-3 R/B                
1 13154U 82039B   25321.44867492  .00004104  00000+0  25298-3 0  9990
2 13154  81.1777 345.1821 0031807 335.9204  24.0532 15.09327284364703
SL-3 R/B                
1 13403U 82079B   25321.45823419  .00007716  00000+0  32209-3 0  9995
2 13403  81.1458 325.4570 0025556 181.9283 178.1856 15.23211110360609
SL-14 R/B               
1 13553U 82092B   25321.31432281  .00001062  00000+0  11691-3 0  9994
2 13553  82.5684 246.4874 0019338 317.8503 159.3870 14.86516750312235
SL-3 R/B                
1 13819U 83010B   25321.48054814  .00018278  00000+0  41713-3 0  9995
2 13819  81.1020 139.4297 0018253  77.2847 283.0435 15.42575128340625
SL-3 R/B                
1 14208U 83075B   25321.44162840  .00015432  00000+0  44701-3 0  9993
2 14208  97.6097 317.0906 0020942 271.2222  88.6622 15.35448824312918
SL-14 R/B               
1 14820U 84027B   25321.43659634  .00000831  00000+0  92564-4 0  9990
2 14820  82.5422 350.2868 0017646 350.4124   9.6752 14.85837506230961
SL-8 R/B                
1 15483U 85006B   25321.49280344  .00000459  00000+0  16098-3 0  9991
2 15483  74.0440 107.5829 0017706  47.7043  14.0451 14.37699091137904
SL-12 R/B(2)            
1 15772U 85042D   25321.50159815  .00000309  00000+0  16048-3 0  9991
2 15772  71.1080 324.7398 0037431 298.4011 176.1621 14.21940681 98445
SL-14 R/B               
1 15945U 85069B   25321.45538455  .00000967  00000+0  10687-3 0  9990
2 15945  82.5244 130.4739 0018245 200.1163 159.9337 14.86281315156166
SL-16 R/B               
1 16182U 85097B   25321.50717344  .00000277  00000+0  16296-3 0  9993
2 16182  71.0044  16.7253 0005440  58.2056  40.2615 14.16577862 71349
