CCSDS_OMM_VERS = 2.0
CREATION_DATE  = 
ORIGINATOR     = 

OBJECT_NAME    = SL-3 R/B
OBJECT_ID      = 1982-039B
CENTER_NAME    = EARTH
REF_FRAME      = TEME
TIME_SYSTEM    = UTC
MEAN_ELEMENT_THEORY = SGP/SGP4

EPOCH          = 2025-11-17T10:46:05.513088
MEAN_MOTION    = 15.09327284
ECCENTRICITY   = .0031807
INCLINATION    = 81.1777
RA_OF_ASC_NODE = 345.1821
ARG_OF_PERICENTER = 335.9204
MEAN_ANOMALY   = 24.0532

EPHEMERIS_TYPE = 0
CLASSIFICATION_TYPE = U
NORAD_CAT_ID   = 13154
ELEMENT_SET_NO = 999
REV_AT_EPOCH   = 36470
BSTAR          = .25298E-3
MEAN_MOTION_DOT = .4104E-4
MEAN_MOTION_DDOT = 0

CCSDS_OMM_VERS = 2.0
CREATION_DATE  = 
ORIGINATOR     = 

OBJECT_NAME    = SL-3 R/B
OBJECT_ID      = 1982-079B
CENTER_NAME    = EARTH
REF_FRAME      = TEME
TIME_SYSTEM    = UTC
MEAN_ELEMENT_THEORY = SGP/SGP4

EPOCH          = 2025-11-17T10:59:51.434016
MEAN_MOTION    = 15.23211110
ECCENTRICITY   = .0025556
INCLINATION    = 81.1458
RA_OF_ASC_NODE = 325.4570
ARG_OF_PERICENTER = 181.9283
MEAN_ANOMALY   = 178.1856

EPHEMERIS_TYPE = 0
CLASSIFICATION_TYPE = U
NORAD_CAT_ID   = 13403
ELEMENT_SET_NO = 999
REV_AT_EPOCH   = 36060
BSTAR          = .32209E-3
MEAN_MOTION_DOT = .7716E-4
MEAN_MOTION_DDOT = 0

CCSDS_OMM_VERS = 2.0
CREATION_DATE  = 
ORIGINATOR     = 

OBJECT_NAME    = SL-14 R/B
OBJECT_ID      = 1982-092B
CENTER_NAME    = EARTH
REF_FRAME      = TEME
TIME_SYSTEM    = UTC
MEAN_ELEMENT_THEORY = SGP/SGP4

EPOCH          = 2025-11-17T07:32:37.489920
MEAN_MOTION    = 14.86516750
ECCENTRICITY   = .0019339
INCLINATION    = 82.5684
RA_OF_ASC_NODE = 246.4874
ARG_OF_PERICENTER = 317.8503
MEAN_ANOMALY   = 159.3870

EPHEMERIS_TYPE = 0
CLASSIFICATION_TYPE = U
NORAD_CAT_ID   = 13553
ELEMENT_SET_NO = 999
REV_AT_EPOCH   = 31223
BSTAR          = .11691E-3
MEAN_MOTION_DOT = .1062E-4
MEAN_MOTION_DDOT = 0

CCSDS_OMM_VERS = 2.0
CREATION_DATE  = 
ORIGINATOR     = 

OBJECT_NAME    = SL-3 R/B
OBJECT_ID      = 1983-010B
CENTER_NAME    = EARTH
REF_FRAME      = TEME
TIME_SYSTEM    = UTC
MEAN_ELEMENT_THEORY = SGP/SGP4

EPOCH          = 2025-11-17T11:31:59.359296
MEAN_MOTION    = 15.42575128
ECCENTRICITY   = .0018253
INCLINATION    = 81.1020
RA_OF_ASC_NODE = 139.4297
ARG_OF_PERICENTER = 77.2847
MEAN_ANOMALY   = 283.0435

EPHEMERIS_TYPE = 0
CLASSIFICATION_TYPE = U
NORAD_CAT_ID   = 13819
ELEMENT_SET_NO = 999
REV_AT_EPOCH   = 34062
BSTAR          = .41713E-3
MEAN_MOTION_DOT = .18278E-3
MEAN_MOTION_DDOT = 0

CCSDS_OMM_VERS = 2.0
CREATION_DATE  = 
ORIGINATOR     = 

OBJECT_NAME    = SL-3 R/B
OBJECT_ID      = 1983-075B
CENTER_NAME    = EARTH
REF_FRAME      = TEME
TIME_SYSTEM    = UTC
MEAN_ELEMENT_THEORY = SGP/SGP4

EPOCH          = 2025-11-17T10:35:56.693760
MEAN_MOTION    = 15.35448824
ECCENTRICITY   = .0020942
INCLINATION    = 97.6097
RA_OF_ASC_NODE = 317.0906
ARG_OF_PERICENTER = 271.2222
MEAN_ANOMALY   = 88.6622

EPHEMERIS_TYPE = 0
CLASSIFICATION_TYPE = U
NORAD_CAT_ID   = 14208
ELEMENT_SET_NO = 999
REV_AT_EPOCH   = 31291
BSTAR          = .44701E-3
MEAN_MOTION_DOT = .15432E-3
MEAN_MOTION_DDOT = 0

CCSDS_OMM_VERS = 2.0
CREATION_DATE  = 
ORIGINATOR     = 

OBJECT_NAME    = SL-14 R/B
OBJECT_ID      = 1984-027B
CENTER_NAME    = EARTH
REF_FRAME      = TEME
TIME_SYSTEM    = UTC
MEAN_ELEMENT_THEORY = SGP/SGP4

EPOCH          = 2025-11-17T10:28:41.923776
MEAN_MOTION    = 14.85837506
ECCENTRICITY   = .0017646
INCLINATION    = 82.5422
RA_OF_ASC_NODE = 350.2868
ARG_OF_PERICENTER = 350.4124
MEAN_ANOMALY   = 9.6752

EPHEMERIS_TYPE = 0
CLASSIFICATION_TYPE = U
NORAD_CAT_ID   = 14820
ELEMENT_SET_NO = 999
REV_AT_EPOCH   = 23096
BSTAR          = .92564E-4
MEAN_MOTION_DOT = .831E-5
MEAN_MOTION_DDOT = 0

CCSDS_OMM_VERS = 2.0
CREATION_DATE  = 
ORIGINATOR     = 

OBJECT_NAME    = SL-8 R/B
OBJECT_ID      = 1985-006B
CENTER_NAME    = EARTH
REF_FRAME      = TEME
TIME_SYSTEM    = UTC
MEAN_ELEMENT_THEORY = SGP/SGP4

EPOCH          = 2025-11-17T11:49:38.217216
MEAN_MOTION    = 14.37699091
ECCENTRICITY   = .0017706
INCLINATION    = 74.0440
RA_OF_ASC_NODE = 107.5829
ARG_OF_PERICENTER = 47.7043
MEAN_ANOMALY   = 14.0451

EPHEMERIS_TYPE = 0
CLASSIFICATION_TYPE = U
NORAD_CAT_ID   = 15483
ELEMENT_SET_NO = 999
REV_AT_EPOCH   = 13790
BSTAR          = .16098E-3
MEAN_MOTION_DOT = .459E-5
MEAN_MOTION_DDOT = 0

CCSDS_OMM_VERS = 2.0
CREATION_DATE  = 
ORIGINATOR     = 

OBJECT_NAME    = SL-12 R/B(2)
OBJECT_ID      = 1985-042D
CENTER_NAME    = EARTH
REF_FRAME      = TEME
TIME_SYSTEM    = UTC
MEAN_ELEMENT_THEORY = SGP/SGP4

EPOCH          = 2025-11-17T12:02:18.080160
MEAN_MOTION    = 14.21940681
ECCENTRICITY   = .0037431
INCLINATION    = 71.1080
RA_OF_ASC_NODE = 324.7398
ARG_OF_PERICENTER = 298.4011
MEAN_ANOMALY   = 176.1621

EPHEMERIS_TYPE = 0
CLASSIFICATION_TYPE = U
NORAD_CAT_ID   = 15772
ELEMENT_SET_NO = 999
REV_AT_EPOCH   = 9844
BSTAR          = .16048E-3
MEAN_MOTION_DOT = .309E-5
MEAN_MOTION_DDOT = 0

CCSDS_OMM_VERS = 2.0
CREATION_DATE  = 
ORIGINATOR     = 

OBJECT_NAME    = SL-14 R/B
OBJECT_ID      = 1985-069B
CENTER_NAME    = EARTH
REF_FRAME      = TEME
TIME_SYSTEM    = UTC
MEAN_ELEMENT_THEORY = SGP/SGP4

EPOCH          = 2025-11-17T10:55:45.225120
MEAN_MOTION    = 14.86281315
ECCENTRICITY   = .0018245
INCLINATION    = 82.5244
RA_OF_ASC_NODE = 130.4739
ARG_OF_PERICENTER = 200.1163
MEAN_ANOMALY   = 159.9337

EPHEMERIS_TYPE = 0
CLASSIFICATION_TYPE = U
NORAD_CAT_ID   = 15945
ELEMENT_SET_NO = 999
REV_AT_EPOCH   = 15616
BSTAR          = .10687E-3
MEAN_MOTION_DOT = .967E-5
MEAN_MOTION_DDOT = 0

CCSDS_OMM_VERS = 2.0
CREATION_DATE  = 
ORIGINATOR     = 

OBJECT_NAME    = SL-16 R/B
OBJECT_ID      = 1985-097B
CENTER_NAME    = EARTH
REF_FRAME      = TEME
TIME_SYSTEM    = UTC
MEAN_ELEMENT_THEORY = SGP/SGP4

EPOCH          = 2025-11-17T12:10:19.785216
MEAN_MOTION    = 14.16577862
ECCENTRICITY   = .000544
INCLINATION    = 71.0044
RA_OF_ASC_NODE = 16.7253
ARG_OF_PERICENTER = 58.2056
MEAN_ANOMALY   = 40.2615

EPHEMERIS_TYPE = 0
CLASSIFICATION_TYPE = U
NORAD_CAT_ID   = 16182
ELEMENT_SET_NO = 999
REV_AT_EPOCH   = 7134
BSTAR          = .16296E-3
MEAN_MOTION_DOT = .277E-5
MEAN_MOTION_DDOT = 0

